start=new Date('2022-11-21T00:00:00.000Z').valueOf();
sats=[{"ARG_OF_PERICENTER":"49.0002","EPHEMERIS_TYPE":"0","OBJECT_ID":"2022-052AA","RA_OF_ASC_NODE":"295.1929","REV_AT_EPOCH":"2881","ECCENTRICITY":"0.00014230","TIME_SYSTEM":"UTC","FILE":"3664760","COUNTRY_CODE":"US","PERIOD":"95.437","MEAN_MOTION_DOT":"0.00002286","MEAN_MOTION_DDOT":"0.0000000000000","EPOCH":"2022-11-20T07:56:17.239776","OBJECT_NAME":"STARLINK-4008","SEMIMAJOR_AXIS":"6917.864","CENTER_NAME":"EARTH","OBJECT_TYPE":"PAYLOAD","MEAN_ELEMENT_THEORY":"SGP4","PERIAPSIS":"538.745","GP_ID":"218291713","TLE_LINE1":"1 52622U 22052AA  22324.33075509  .00002286  00000-0  16167-3 0  9995","CLASSIFICATION_TYPE":"U","DECAY_DATE":null,"SITE":"AFETR","MEAN_MOTION":"15.08845263","RCS_SIZE":"LARGE","MEAN_ANOMALY":"311.1113","NORAD_CAT_ID":"52622","LAUNCH_DATE":"2022-05-14","BSTAR":"0.00016167000000","ELEMENT_SET_NO":"999","TLE_LINE2":"2 52622  53.2188 295.1929 0001423  49.0002 311.1113 15.08845263 28810","INCLINATION":"53.2188","REF_FRAME":"TEME","APOAPSIS":"540.714"},{"NORAD_CAT_ID":"52623","LAUNCH_DATE":"2022-05-14","ELEMENT_SET_NO":"999","TLE_LINE2":"2 52623  53.2190 280.3622 0002831  36.8936 323.2251 15.08849613 29017","BSTAR":"0.00008777400000","INCLINATION":"53.2190","REF_FRAME":"TEME","APOAPSIS":"541.674","PERIAPSIS":"537.758","GP_ID":"218291963","TLE_LINE1":"1 52623U 22052AB  22324.29348722  .00001109  00000-0  87774-4 0  9997","CLASSIFICATION_TYPE":"U","DECAY_DATE":null,"MEAN_MOTION":"15.08849613","SITE":"AFETR","MEAN_ANOMALY":"323.2251","RCS_SIZE":"LARGE","PERIOD":"95.437","OBJECT_NAME":"STARLINK-3986","SEMIMAJOR_AXIS":"6917.851","MEAN_MOTION_DOT":"0.00001109","MEAN_MOTION_DDOT":"0.0000000000000","EPOCH":"2022-11-20T07:02:37.295808","CENTER_NAME":"EARTH","OBJECT_TYPE":"PAYLOAD","MEAN_ELEMENT_THEORY":"SGP4","EPHEMERIS_TYPE":"0","ARG_OF_PERICENTER":"36.8936","OBJECT_ID":"2022-052AB","RA_OF_ASC_NODE":"280.3622","REV_AT_EPOCH":"2901","ECCENTRICITY":"0.00028310","TIME_SYSTEM":"UTC","FILE":"3664760","COUNTRY_CODE":"US"},{"INCLINATION":"53.2163","APOAPSIS":"541.556","REF_FRAME":"TEME","LAUNCH_DATE":"2022-05-14","NORAD_CAT_ID":"52624","TLE_LINE2":"2 52624  53.2163 277.6363 0002614  30.4515 329.6629 15.08839352 29109","ELEMENT_SET_NO":"999","BSTAR":"0.00000706100000","MEAN_MOTION":"15.08839352","SITE":"AFETR","DECAY_DATE":null,"MEAN_ANOMALY":"329.6629","RCS_SIZE":"LARGE","PERIAPSIS":"537.939","TLE_LINE1":"1 52624U 22052AC  22324.90068909 -.00000176  00000-0  70610-5 0  9998","CLASSIFICATION_TYPE":"U","GP_ID":"218362993","OBJECT_TYPE":"PAYLOAD","MEAN_ELEMENT_THEORY":"SGP4","SEMIMAJOR_AXIS":"6917.882","OBJECT_NAME":"STARLINK-4009","MEAN_MOTION_DDOT":"0.0000000000000","EPOCH":"2022-11-20T21:36:59.537376","MEAN_MOTION_DOT":"-0.00000176","PERIOD":"95.438","CENTER_NAME":"EARTH","TIME_SYSTEM":"UTC","REV_AT_EPOCH":"2910","ECCENTRICITY":"0.00026140","COUNTRY_CODE":"US","FILE":"3665715","OBJECT_ID":"2022-052AC","ARG_OF_PERICENTER":"30.4515","EPHEMERIS_TYPE":"0","RA_OF_ASC_NODE":"277.6363"},{"INCLINATION":"53.2181","APOAPSIS":"540.891","REF_FRAME":"TEME","LAUNCH_DATE":"2022-05-14","NORAD_CAT_ID":"52625","TLE_LINE2":"2 52625  53.2181 277.6946 0001652  53.0062 307.1081 15.08839049 29102","ELEMENT_SET_NO":"999","BSTAR":"0.00004305500000","MEAN_MOTION":"15.08839049","SITE":"AFETR","DECAY_DATE":null,"MEAN_ANOMALY":"307.1081","RCS_SIZE":"LARGE","PERIAPSIS":"538.605","TLE_LINE1":"1 52625U 22052AD  22324.88597396  .00000397  00000-0  43055-4 0  9999","CLASSIFICATION_TYPE":"U","GP_ID":"218361741","OBJECT_TYPE":"PAYLOAD","MEAN_ELEMENT_THEORY":"SGP4","SEMIMAJOR_AXIS":"6917.883","OBJECT_NAME":"STARLINK-3988","EPOCH":"2022-11-20T21:15:48.150144","MEAN_MOTION_DDOT":"0.0000000000000","MEAN_MOTION_DOT":"0.00000397","PERIOD":"95.438","CENTER_NAME":"EARTH","TIME_SYSTEM":"UTC","REV_AT_EPOCH":"2910","ECCENTRICITY":"0.00016520","COUNTRY_CODE":"US","FILE":"3665715","OBJECT_ID":"2022-052AD","EPHEMERIS_TYPE":"0","ARG_OF_PERICENTER":"53.0062","RA_OF_ASC_NODE":"277.6946"},{"CENTER_NAME":"EARTH","OBJECT_NAME":"STARLINK-3990","SEMIMAJOR_AXIS":"6917.909","EPOCH":"2022-11-20T07:13:12.640800","MEAN_MOTION_DDOT":"0.0000000000000","MEAN_MOTION_DOT":"0.00022633","PERIOD":"95.438","MEAN_ELEMENT_THEORY":"SGP4","OBJECT_TYPE":"PAYLOAD","RA_OF_ASC_NODE":"280.3315","OBJECT_ID":"2022-052AE","ARG_OF_PERICENTER":"43.7014","EPHEMERIS_TYPE":"0","COUNTRY_CODE":"US","FILE":"3664760","TIME_SYSTEM":"UTC","ECCENTRICITY":"0.00022150","REV_AT_EPOCH":"2901","TLE_LINE2":"2 52626  53.2174 280.3315 0002215  43.7014 316.4154 15.08830774 29015","ELEMENT_SET_NO":"999","BSTAR":"0.00143590000000","LAUNCH_DATE":"2022-05-14","NORAD_CAT_ID":"52626","APOAPSIS":"541.306","REF_FRAME":"TEME","INCLINATION":"53.2174","CLASSIFICATION_TYPE":"U","TLE_LINE1":"1 52626U 22052AE  22324.30084075  .00022633  00000-0  14359-2 0  9992","GP_ID":"218291214","PERIAPSIS":"538.241","MEAN_ANOMALY":"316.4154","RCS_SIZE":"LARGE","MEAN_MOTION":"15.08830774","SITE":"AFETR","DECAY_DATE":null},{"OBJECT_TYPE":"PAYLOAD","MEAN_ELEMENT_THEORY":"SGP4","PERIOD":"95.437","OBJECT_NAME":"STARLINK-3992","SEMIMAJOR_AXIS":"6917.867","MEAN_MOTION_DOT":"0.00003546","MEAN_MOTION_DDOT":"0.0000000000000","EPOCH":"2022-11-20T20:59:54.416832","CENTER_NAME":"EARTH","REV_AT_EPOCH":"2911","ECCENTRICITY":"0.00024420","TIME_SYSTEM":"UTC","FILE":"3665715","COUNTRY_CODE":"US","EPHEMERIS_TYPE":"0","ARG_OF_PERICENTER":"37.7768","OBJECT_ID":"2022-052AF","RA_OF_ASC_NODE":"277.7519","INCLINATION":"53.2161","REF_FRAME":"TEME","APOAPSIS":"541.421","NORAD_CAT_ID":"52627","LAUNCH_DATE":"2022-05-14","ELEMENT_SET_NO":"999","TLE_LINE2":"2 52627  53.2161 277.7519 0002442  37.7768 322.3395 15.08844530 29118","BSTAR":"0.00024076000000","DECAY_DATE":null,"MEAN_MOTION":"15.08844530","SITE":"AFETR","MEAN_ANOMALY":"322.3395","RCS_SIZE":"LARGE","PERIAPSIS":"538.042","GP_ID":"218362743","TLE_LINE1":"1 52627U 22052AF  22324.87493538  .00003546  00000-0  24076-3 0  9993","CLASSIFICATION_TYPE":"U"},{"CENTER_NAME":"EARTH","PERIOD":"95.437","MEAN_MOTION_DOT":"0.00003313","MEAN_MOTION_DDOT":"0.0000000000000","EPOCH":"2022-11-20T07:50:59.208288","OBJECT_NAME":"STARLINK-4001","SEMIMAJOR_AXIS":"6917.865","MEAN_ELEMENT_THEORY":"SGP4","OBJECT_TYPE":"PAYLOAD","RA_OF_ASC_NODE":"295.2148","EPHEMERIS_TYPE":"0","ARG_OF_PERICENTER":"37.5488","OBJECT_ID":"2022-052AG","FILE":"3664760","COUNTRY_CODE":"US","REV_AT_EPOCH":"2881","ECCENTRICITY":"0.00022580","TIME_SYSTEM":"UTC","BSTAR":"0.00022614000000","TLE_LINE2":"2 52628  53.2174 295.2148 0002258  37.5488 322.5662 15.08844938 28815","ELEMENT_SET_NO":"999","NORAD_CAT_ID":"52628","LAUNCH_DATE":"2022-05-14","REF_FRAME":"TEME","APOAPSIS":"541.292","INCLINATION":"53.2174","GP_ID":"218292715","TLE_LINE1":"1 52628U 22052AG  22324.32707417  .00003313  00000-0  22614-3 0  9996","CLASSIFICATION_TYPE":"U","PERIAPSIS":"538.168","RCS_SIZE":"LARGE","MEAN_ANOMALY":"322.5662","DECAY_DATE":null,"SITE":"AFETR","MEAN_MOTION":"15.08844938"},{"PERIOD":"95.438","OBJECT_NAME":"STARLINK-4022","SEMIMAJOR_AXIS":"6917.880","MEAN_MOTION_DDOT":"0.0000000000000","EPOCH":"2022-11-20T20:54:35.951616","MEAN_MOTION_DOT":"0.00000186","CENTER_NAME":"EARTH","OBJECT_TYPE":"PAYLOAD","MEAN_ELEMENT_THEORY":"SGP4","EPHEMERIS_TYPE":"0","ARG_OF_PERICENTER":"32.0148","OBJECT_ID":"2022-052AH","RA_OF_ASC_NODE":"277.7704","REV_AT_EPOCH":"2910","ECCENTRICITY":"0.00024790","TIME_SYSTEM":"UTC","FILE":"3665715","COUNTRY_CODE":"US","NORAD_CAT_ID":"52629","LAUNCH_DATE":"2022-05-14","TLE_LINE2":"2 52629  53.2201 277.7704 0002479  32.0148 328.0995 15.08840186 29102","ELEMENT_SET_NO":"999","BSTAR":"0.00002979500000","INCLINATION":"53.2201","REF_FRAME":"TEME","APOAPSIS":"541.460","PERIAPSIS":"538.030","GP_ID":"218361243","TLE_LINE1":"1 52629U 22052AH  22324.87124944  .00000186  00000-0  29795-4 0  9998","CLASSIFICATION_TYPE":"U","DECAY_DATE":null,"MEAN_MOTION":"15.08840186","SITE":"AFETR","MEAN_ANOMALY":"328.0995","RCS_SIZE":"LARGE"},{"CENTER_NAME":"EARTH","OBJECT_NAME":"STARLINK-3989","SEMIMAJOR_AXIS":"6917.851","MEAN_MOTION_DOT":"0.00000918","MEAN_MOTION_DDOT":"0.0000000000000","EPOCH":"2022-11-20T06:52:01.376256","PERIOD":"95.437","MEAN_ELEMENT_THEORY":"SGP4","OBJECT_TYPE":"PAYLOAD","RA_OF_ASC_NODE":"280.3967","OBJECT_ID":"2022-052AJ","ARG_OF_PERICENTER":"33.1125","EPHEMERIS_TYPE":"0","COUNTRY_CODE":"US","FILE":"3664760","TIME_SYSTEM":"UTC","REV_AT_EPOCH":"2901","ECCENTRICITY":"0.00029070","ELEMENT_SET_NO":"999","TLE_LINE2":"2 52630  53.2180 280.3967 0002907  33.1125 327.0049 15.08849718 29013","BSTAR":"0.00007577400000","LAUNCH_DATE":"2022-05-14","NORAD_CAT_ID":"52630","APOAPSIS":"541.727","REF_FRAME":"TEME","INCLINATION":"53.2180","CLASSIFICATION_TYPE":"U","TLE_LINE1":"1 52630U 22052AJ  22324.28612704  .00000918  00000-0  75774-4 0  9992","GP_ID":"218291714","PERIAPSIS":"537.705","MEAN_ANOMALY":"327.0049","RCS_SIZE":"LARGE","MEAN_MOTION":"15.08849718","SITE":"AFETR","DECAY_DATE":null},{"ECCENTRICITY":"0.00032510","REV_AT_EPOCH":"2911","TIME_SYSTEM":"UTC","FILE":"3665715","COUNTRY_CODE":"US","ARG_OF_PERICENTER":"36.0509","EPHEMERIS_TYPE":"0","OBJECT_ID":"2022-052AK","RA_OF_ASC_NODE":"277.7848","OBJECT_TYPE":"PAYLOAD","MEAN_ELEMENT_THEORY":"SGP4","PERIOD":"95.437","MEAN_MOTION_DDOT":"0.0000000000000","MEAN_MOTION_DOT":"0.00003015","EPOCH":"2022-11-20T20:49:18.084288","OBJECT_NAME":"STARLINK-3794","SEMIMAJOR_AXIS":"6917.862","CENTER_NAME":"EARTH","DECAY_DATE":null,"SITE":"AFETR","MEAN_MOTION":"15.08846090","RCS_SIZE":"LARGE","MEAN_ANOMALY":"324.0702","PERIAPSIS":"537.478","GP_ID":"218362244","CLASSIFICATION_TYPE":"U","TLE_LINE1":"1 52631U 22052AK  22324.86757042  .00003015  00000-0  20743-3 0  9998","INCLINATION":"53.2160","REF_FRAME":"TEME","APOAPSIS":"541.976","NORAD_CAT_ID":"52631","LAUNCH_DATE":"2022-05-14","BSTAR":"0.00020743000000","ELEMENT_SET_NO":"999","TLE_LINE2":"2 52631  53.2160 277.7848 0003251  36.0509 324.0702 15.08846090 29115"}];
